NORAD_CAT_ID,OBJECT_NAME,OBJECT_TYPE,EPOCH,MEAN_MOTION,ECCENTRICITY,INCLINATION,RA_OF_ASC_NODE,ARG_OF_PERICENTER,MEAN_ANOMALY,BSTAR,MEAN_MOTION_DOT,MEAN_MOTION_DDOT,TLE_LINE0,TLE_LINE1,TLE_LINE2,SEMIMAJOR_AXIS,PERIOD,APOGEE,PERIGEE,DECAYED
50830.0,STARLINK-3278,PAYLOAD,2022-05-16 14:00:01,15.08862814,0.0001911,53.2176,313.0069,44.7696,107.6229,-0.0032996,-0.00052453,0.0,0 STARLINK-3278,1 50830U 22001AD  22136.58334491 -.00052453  00000-0 -32996-2 0  9994,2 50830  53.2176 313.0069 0001911  44.7696 107.6229 15.08862814  1306,6917.811,95.436,540.998,538.354,0.0
50830.0,STARLINK-3278,PAYLOAD,2022-05-16 22:00:00,15.08803898,0.0002114,53.2176,311.5119,39.9466,124.0565,0.0036432,0.00058115,0.0,0 STARLINK-3278,1 50830U 22001AD  22136.91667824  .00058115  00000-0  36432-2 0  9998,2 50830  53.2176 311.5119 0002114  39.9466 124.0565 15.08803898 21273,6917.991,95.44,541.318,538.393,0.0
50830.0,STARLINK-3278,PAYLOAD,2022-05-17 06:00:00,15.08814808,0.0002042,53.2179,310.0139,44.3956,131.1537,0.0014491,0.00022834,0.0,0 STARLINK-3278,1 50830U 22001AD  22137.25001157  .00022834  00000-0  14491-2 0  9997,2 50830  53.2179 310.0139 0002042  44.3956 131.1537 15.08814808 21323,6917.956999999999,95.439,541.235,538.41,0.0
50830.0,STARLINK-3278,PAYLOAD,2022-05-17 14:00:01,15.08850051,0.0002104,53.2182,308.5177,46.3281,140.8556,-0.00035089,-5.870000000000001e-05,0.0,0 STARLINK-3278,1 50830U 22001AD  22137.58335648 -.00005870  00000-0 -35089-3 0  9998,2 50830  53.2182 308.5177 0002104  46.3281 140.8556 15.08850051  1307,6917.85,95.437,541.17,538.259,0.0
50830.0,STARLINK-3278,PAYLOAD,2022-05-17 22:00:01,15.08844857,0.0002233,53.2183,307.0227,40.4111,158.3893,0.0012352,0.00019428,0.0,0 STARLINK-3278,1 50830U 22001AD  22137.91668981  .00019428  00000-0  12352-2 0  9993,2 50830  53.2183 307.0227 0002233  40.4111 158.3893 15.08844857  1303,6917.866,95.437,541.275,538.186,0.0
50830.0,STARLINK-3278,PAYLOAD,2022-05-18 14:00:01,15.0887105,0.0002104,53.2188,304.0287,44.6033,177.3546,-0.002914,-0.00046407,0.0,0 STARLINK-3278,1 50830U 22001AD  22138.58334491 -.00046407  00000-0 -29140-2 0  9995,2 50830  53.2188 304.0287 0002104  44.6033 177.3546 15.08871050 21524,6917.785,95.436,541.106,538.195,0.0
50830.0,STARLINK-3278,PAYLOAD,2022-05-18 22:00:00,15.08822943,0.0002197,53.2186,302.5337,38.4939,195.0832,5.3167e-05,5.58e-06,0.0,0 STARLINK-3278,1 50830U 22001AD  22138.91667824  .00000558  00000-0  53167-4 0  9994,2 50830  53.2186 302.5337 0002197  38.4939 195.0832 15.08822943  1305,6917.933000000001,95.439,541.317,538.278,0.0
50830.0,STARLINK-3278,PAYLOAD,2022-05-19 14:00:01,15.08838096,0.0001985,53.2189,299.5401,40.9273,215.8457,-0.00064809,-0.00010587,0.0,0 STARLINK-3278,1 50830U 22001AD  22139.58335648 -.00010587  00000-0 -64809-3 0  9993,2 50830  53.2189 299.5401 0001985  40.9273 215.8457 15.08838096  1308,6917.886,95.438,541.124,538.378,0.0
50830.0,STARLINK-3278,PAYLOAD,2022-05-19 22:00:00,15.08830562,0.00021,53.2185,298.045,34.8454,233.468,0.00098451,0.00015411,0.0,0 STARLINK-3278,1 50830U 22001AD  22139.91667824  .00015411  00000-0  98451-3 0  9993,2 50830  53.2185 298.0450 0002100  34.8454 233.4680 15.08830562 21738,6917.909000000002,95.438,541.227,538.321,0.0
50830.0,STARLINK-3278,PAYLOAD,2022-05-20 14:00:01,15.08871041,0.0001896,53.2185,295.0516,36.7677,254.729,-0.003467,-0.00055091,0.0,0 STARLINK-3278,1 50830U 22001AD  22140.58334491 -.00055091  00000-0 -34670-2 0  9991,2 50830  53.2185 295.0516 0001896  36.7677 254.7290 15.08871041  1308,6917.786,95.436,540.962,538.339,0.0
50830.0,STARLINK-3278,PAYLOAD,2022-05-20 22:00:00,15.08827135,0.0002142,53.2179,293.5563,36.6511,266.4447,0.0026312,0.00041822,0.0,0 STARLINK-3278,1 50830U 22001AD  22140.91667824  .00041822  00000-0  26312-2 0  9996,2 50830  53.2179 293.5563 0002142  36.6511 266.4447 15.08827135 21881,6917.92,95.438,541.2669999999998,538.303,0.0
50830.0,STARLINK-3278,PAYLOAD,2022-05-21 06:00:00,15.08824542,0.00019,53.2178,292.0583,39.3429,275.3632,0.0021465,0.00034025,0.0,0 STARLINK-3278,1 50830U 22001AD  22141.25001157  .00034025  00000-0  21465-2 0  9996,2 50830  53.2178 292.0583 0001900  39.3429 275.3632 15.08824542  1304,6917.928000000001,95.439,541.107,538.4780000000002,0.0
50830.0,STARLINK-3278,PAYLOAD,2022-05-21 14:00:01,15.08861643,0.000195,53.2178,290.5629,37.2553,289.096,-0.0034745,-0.00055195,0.0,0 STARLINK-3278,1 50830U 22001AD  22141.58335648 -.00055195  00000-0 -34745-2 0  9995,2 50830  53.2178 290.5629 0001950  37.2553 289.0960 15.08861643 21983,6917.814,95.436,541.028,538.33,0.0
50830.0,STARLINK-3278,PAYLOAD,2022-05-21 22:00:00,15.08833991,0.0002098,53.2172,289.0675,33.2238,304.6707,-0.00032105,-5.393e-05,0.0,0 STARLINK-3278,1 50830U 22001AD  22141.91667824 -.00005393  00000-0 -32105-3 0  9990,2 50830  53.2172 289.0675 0002098  33.2238 304.6707 15.08833991  1303,6917.899,95.438,541.215,538.312,0.0
50830.0,STARLINK-3278,PAYLOAD,2022-05-22 06:00:00,15.08798582,0.0001926,53.2171,287.5694,39.1957,310.2916,0.0040369,0.00064475,0.0,0 STARLINK-3278,1 50830U 22001AD  22142.25001157  .00064475  00000-0  40369-2 0  9993,2 50830  53.2171 287.5694 0001926  39.1957 310.2916 15.08798582 22087,6918.007,95.44,541.2040000000002,538.54,0.0
50830.0,STARLINK-3278,PAYLOAD,2022-05-22 14:00:01,15.08854828,0.0002032,53.2172,286.0743,37.5607,323.4938,-0.0034482,-0.00054773,0.0,0 STARLINK-3278,1 50830U 22001AD  22142.58334491 -.00054773  00000-0 -34482-2 0  9990,2 50830  53.2172 286.0743 0002032  37.5607 323.4938 15.08854828  1308,6917.835,95.437,541.106,538.294,0.0
50830.0,STARLINK-3278,PAYLOAD,2022-05-22 22:00:01,15.08831511,0.0002168,53.2167,284.5784,33.1875,339.5243,-0.00015965,-2.828e-05,0.0,0 STARLINK-3278,1 50830U 22001AD  22142.91668981 -.00002828  00000-0 -15965-3 0  9991,2 50830  53.2167 284.5784 0002168  33.1875 339.5243 15.08831511 22189,6917.906,95.438,541.271,538.2719999999998,0.0
50830.0,STARLINK-3278,PAYLOAD,2022-05-23 14:00:01,15.0885194,0.000216,53.2169,281.5853,38.2739,357.5371,-0.001431,-0.00022999,0.0,0 STARLINK-3278,1 50830U 22001AD  22143.58334491 -.00022999  00000-0 -14310-2 0  9994,2 50830  53.2169 281.5853 0002160  38.2739 357.5371 15.08851940  1303,6917.844,95.437,541.203,538.215,0.0
50830.0,STARLINK-3278,PAYLOAD,2022-05-23 22:00:01,15.0883747,0.0002227,53.2167,280.0892,33.2766,14.1994,0.00036892,5.588e-05,0.0,0 STARLINK-3278,1 50830U 22001AD  22143.91668981  .00005588  00000-0  36892-3 0  9998,2 50830  53.2167 280.0892 0002227  33.2766  14.1994 15.08837470  1306,6917.888000000001,95.438,541.294,538.2130000000002,0.0
50830.0,STARLINK-3278,PAYLOAD,2022-05-24 06:00:02,15.08829992,0.0001997,53.2169,278.591,35.6532,23.4203,0.0011616,0.00018242,0.0,0 STARLINK-3278,1 50830U 22001AD  22144.25002315  .00018242  00000-0  11616-2 0  9996,2 50830  53.2169 278.5910 0001997  35.6532  23.4203 15.08829992 22388,6917.911,95.438,541.1569999999998,538.394,0.0
50830.0,STARLINK-3278,PAYLOAD,2022-05-24 13:41:20,15.08843181,0.0002377,53.2177,277.1532,38.4063,321.7098,0.00018466,2.652e-05,0.0,0 STARLINK-3278,1 50830U 22001AD  22144.57037507  .00002652  00000-0  18466-3 0  9991,2 50830  53.2177 277.1532 0002377  38.4063 321.7098 15.08843181 21162,6917.871,95.437,541.38,538.091,0.0
50830.0,STARLINK-3278,PAYLOAD,2022-05-24 22:00:00,15.08829054,0.0002197,53.217,275.5999,28.8655,53.3177,-0.00018609,-3.248e-05,0.0,0 STARLINK-3278,1 50830U 22001AD  22144.91667824 -.00003248  00000-0 -18609-3 0  9993,2 50830  53.2170 275.5999 0002197  28.8655  53.3177 15.08829054 22489,6917.9140000000025,95.438,541.299,538.259,0.0
50830.0,STARLINK-3278,PAYLOAD,2022-05-25 14:00:01,15.08857824,0.0002163,53.2176,272.6068,30.9806,74.367,-0.0012997999999999,-0.00020926,0.0,0 STARLINK-3278,1 50830U 22001AD  22145.58334491 -.00020926  00000-0 -12998-2 0  9994,2 50830  53.2176 272.6068 0002163  30.9806  74.3670 15.08857824  1300,6917.826,95.436,541.187,538.195,0.0
50830.0,STARLINK-3278,PAYLOAD,2022-05-25 18:18:17,15.08843662,0.0002344,53.219,271.8017,39.7532,320.3632,0.00018222,2.613e-05,0.0,0 STARLINK-3278,1 50830U 22001AD  22145.76269840  .00002613  00000-0  18222-3 0  9997,2 50830  53.2190 271.8017 0002344  39.7532 320.3632 15.08843662 22619,6917.869000000002,95.437,541.356,538.113,0.0
50830.0,STARLINK-3278,PAYLOAD,2022-05-25 19:53:40,15.08843855,0.000233,53.2189,271.5046,40.0753,320.0411,0.00020818,3.027e-05,0.0,0 STARLINK-3278,1 50830U 22001AD  22145.82893838  .00003027  00000-0  20818-3 0  9998,2 50830  53.2189 271.5046 0002330  40.0753 320.0411 15.08843855 21357,6917.869000000002,95.437,541.345,538.122,0.0
50830.0,STARLINK-3278,PAYLOAD,2022-05-26 06:00:00,15.08802835,0.0002025,53.2179,269.6125,32.5867,95.9809,0.0028075,0.00044631,0.0,0 STARLINK-3278,1 50830U 22001AD  22146.25001157  .00044631  00000-0  28075-2 0  9999,2 50830  53.2179 269.6125 0002025  32.5867  95.9809 15.08802835 22684,6917.994000000002,95.44,541.26,538.4580000000002,0.0
50830.0,STARLINK-3278,PAYLOAD,2022-05-26 13:22:55,15.08834477,0.000223,53.2183,268.2318,39.8623,320.2532,-4.0202e-05,-9.28e-06,0.0,0 STARLINK-3278,1 50830U 22001AD  22146.55758191 -.00000928  00000-0 -40202-4 0  9990,2 50830  53.2183 268.2318 0002230  39.8623 320.2532 15.08834477 21465,6917.897,95.438,541.305,538.22,0.0
50830.0,STARLINK-3278,PAYLOAD,2022-05-26 19:44:27,15.08830756,0.0002153,53.2182,267.0427,39.4342,320.6806,8.517799999999999e-05,1.067e-05,0.0,0 STARLINK-3278,1 50830U 22001AD  22146.82254560  .00001067  00000-0  85178-4 0  9995,2 50830  53.2182 267.0427 0002153  39.4342 320.6806 15.08830756 21509,6917.909000000002,95.438,541.263,538.284,0.0
50830.0,STARLINK-3278,PAYLOAD,2022-05-26 22:00:00,15.08832727,0.0002205,53.2178,266.6212,28.71,123.0072,-0.0013066,-0.00021019,0.0,0 STARLINK-3278,1 50830U 22001AD  22146.91667824 -.00021019  00000-0 -13066-2 0  9992,2 50830  53.2178 266.6212 0002205  28.7100 123.0072 15.08832727 22783,6917.903,95.438,541.293,538.242,0.0
